#aV2024  8 12  0  0  0.00000000     288 DD+AD WGS84 FIT  NGA
## 2327  86400.00000000   300.00000000 60534 0.0000000000000
+   31     2  3  4  5  6  7  8  9 10 11 12 13 14 15 16 17 18
+         19 20 21 22 23 24 25 26 27 28 29 30 31 32  0  0  0
+          0  0  0  0  0  0  0  0  0  0  0  0  0  0  0  0  0
+          0  0  0  0  0  0  0  0  0  0  0  0  0  0  0  0  0
+          0  0  0  0  0  0  0  0  0  0  0  0  0  0  0  0  0
++         2  2  2  2  2  2  2  2  2  2  2  2  2  2  2  2  2
++         2  2  2  2  2  2  2  2  2  2  2  2  2  2  0  0  0
++         0  0  0  0  0  0  0  0  0  0  0  0  0  0  0  0  0
++         0  0  0  0  0  0  0  0  0  0  0  0  0  0  0  0  0
++         0  0  0  0  0  0  0  0  0  0  0  0  0  0  0  0  0
%c cc cc ccc ccc cccc cccc cccc cccc ccccc ccccc ccccc ccccc
%c cc cc ccc ccc cccc cccc cccc cccc ccccc ccccc ccccc ccccc
%f  0.0000000  0.000000000  0.00000000000  0.000000000000000
%f  0.0000000  0.000000000  0.00000000000  0.000000000000000
%i    0    0    0    0      0      0      0      0         0
%i    0    0    0    0      0      0      0      0         0
/*      NGA, ST. LOUIS,MO.                                  
/*   EPHEMERIS COMPUTED FROM 2 DAYS OF DATA                 
/*   EPOCHA v9 SMOOTHER                                     
/*   G2296 IERS2010 SATIGS SATAPC                           
*  2024  8 12 20 20  0.00000000
P  2 -14110.954092   8158.360541  21383.824916   -380.256573                    
V  2  -2926.995939 -25954.992668   8464.717966      0.076477                    
P  3 -23106.263484  12963.114358    256.920341    497.427926                    
V  3   -598.272572  -2118.274245  32363.485216      0.150453                    
P  4 -18153.888100   4110.427767 -18986.495054    422.881142                    
V  4 -19731.797116 -13852.360335  15717.315819      0.074769                    
P  5  21888.617055  -1732.774645 -15181.555112   -182.986049                    
V  5 -15002.310801  11611.423050 -23165.486034     -0.012718                    
P  6   5328.616089  24428.759706  -8738.964754    102.497131                    
V  6  -2024.988480  11150.892881  29824.495273     -0.242798                    
P  7  -6412.137525  23727.111774  -8923.790556    -52.884215                    
V  7  -3332.970310 -12231.594537 -28921.000884      0.060397                    
P  8 -24192.733830  -4481.050550  10429.609991    313.058134                    
V  8 -10582.880337  -8377.007654 -27422.220789      0.146794                    
P  9  -7610.529259  13260.923135 -21806.631866    311.553929                    
V  9 -24112.086015 -13188.119614    341.475874      0.155230                    
P 10  -1064.181276 -15806.388528  21466.638480    -92.139607                    
V 10  23552.736443 -12735.421913  -8611.728686     -0.109570                    
P 11  12510.498886  13649.076693 -19041.620103   -720.462568                    
V 11  -2432.758655  24106.806701  15595.990308     -0.056369                    
P 12  24488.153371  -9736.111249   2820.325131   -529.847857                    
V 12  -2286.371541   4270.671526  31535.209749     -0.029426                    
P 13  22421.376177  13636.906003   4637.362234    670.409080                    
V 13   3426.100742   5540.868303 -31130.702006      0.022460                    
P 14  -3139.584366  17747.197607  19482.203563    470.939116                    
V 14 -22476.361905  10514.965734 -13449.911934      0.087479                    
P 15  24409.877921   1538.582178  10056.110702    191.866747                    
V 15  11440.698894   7832.291979 -27393.697167      0.043223                    
P 16 -20258.187857  -3907.979384 -17303.086060   -210.370922                    
V 16  18600.470007 -10172.195989 -19427.947395      0.104122                    
P 17   7076.204462  19071.658736  17409.518341    656.240306                    
V 17 -18653.269854 -10482.714342  19702.756897     -0.093502                    
P 18   6508.744204 -24041.765768  -8888.740834   -645.581466                    
V 18   2126.276672  11402.180654 -29437.305829     -0.031883                    
P 19  15200.865792  19570.747734   9952.410238    523.684744                    
V 19 -11493.821026  -5837.834987  28164.543729      0.051879                    
P 20  15343.503031   6213.780349 -20672.720590    371.750794                    
V 20 -19606.527020  17788.783077  -9324.626282     -0.003849                    
P 21 -15359.034158   1046.556329  22055.617564    103.629184                    
V 21  -2898.534951 -26873.501077    277.023537     -0.005857                    
P 22   4754.061102  14753.869212  21997.484126    -50.527166                    
V 22 -24474.004197  11239.144002  -2001.740477     -0.041738                    
P 23  11741.438099 -18697.213076  14629.429764    295.826872                    
V 23  16775.994875  -8183.635227 -24171.972997      0.086820                    
P 24  14814.104290  -5999.465026  20730.152022   -486.057486                    
V 24   3533.600529  27276.988864   5667.617461     -0.007174                    
P 25  18794.146468 -17271.647632  -7174.565269    499.246203                    
V 25   9121.905327  -1800.097217  29878.889353      0.002256                    
P 26 -10311.469964 -12232.682964 -21369.235516    101.782984                    
V 26  22098.222061 -15306.669147  -1539.935210     -0.075797                    
P 27 -23399.659292 -13036.043509    327.484137    -32.920578                    
V 27    551.805023  -2507.197648 -31482.854184     -0.005233                    
P 28  -5190.260200 -25270.733396  -6324.406133   -369.970255                    
V 28   2431.886930  -8095.455818  30403.380775     -0.149752                    
P 29  11953.596566  -9788.443043 -21662.063439   -584.432097                    
V 29  22368.567877  15747.575576   5113.684310      0.021385                    
P 30    701.223530  26390.903094    986.318537   -341.121790                    
V 30  -3845.033333   1084.738826 -31324.406066      0.067686                    
P 31 -11237.337659 -17575.368813 -16435.638469   -225.922339                    
V 31   2635.093447 -20570.455886  20855.164064      0.003936                    
P 32 -10018.955321 -18711.890971  16304.947954   -606.238498                    
V 32  18414.853845   8520.586785  21177.682317      0.027548                    
EOF
